{
  "type": "FeatureCollection",
  "features": [
    {
      "type": "Feature",
      "properties": {
        "norad_id": 15362,
        "name": "NOVA 3",
        "group": "nnss",
        "lat": -3.5254252916894173,
        "lon": -99.31939964018682,
        "alt_km": 1184.4663867709469,
        "timestamp": "2025-12-25T19:00:39.619317+00:00",
        "meta_object_name": "NOVA 3",
        "meta_object_id": "1984-110A",
        "meta_epoch": "2025-12-25T07:31:21.566784",
        "meta_mean_motion": 13.230462,
        "meta_eccentricity": 0.00298629,
        "meta_inclination": 90.1217,
        "meta_ra_of_asc_node": 80.6825,
        "meta_arg_of_pericenter": 295.6567,
        "meta_mean_anomaly": 129.4524,
        "meta_ephemeris_type": 0,
        "meta_classification_type": "U",
        "meta_norad_cat_id": 15362,
        "meta_element_set_no": 999,
        "meta_rev_at_epoch": 98865,
        "meta_bstar": 0.00014301393,
        "meta_mean_motion_dot": 6.8e-07,
        "meta_mean_motion_ddot": 0,
        "tle_line1": "1 15362U 84110A   25359.31344406  .00000068  00000+0  14301-3 0  9995",
        "tle_line2": "2 15362  90.1217  80.6825 0029862 295.6567 129.4524 13.23046200988659"
      },
      "geometry": {
        "type": "Point",
        "coordinates": [
          -99.31939964018682,
          -3.5254252916894173
        ]
      }
    },
    {
      "type": "Feature",
      "properties": {
        "norad_id": 15935,
        "name": "OSCAR 30",
        "group": "nnss",
        "lat": 21.976400601771402,
        "lon": -79.87286823213368,
        "alt_km": 1166.1737178043422,
        "timestamp": "2025-12-25T19:00:39.619328+00:00",
        "meta_object_name": "OSCAR 30",
        "meta_object_id": "1985-066A",
        "meta_epoch": "2025-12-25T01:06:57.918816",
        "meta_mean_motion": 13.36080406,
        "meta_eccentricity": 0.01688606,
        "meta_inclination": 90.1652,
        "meta_ra_of_asc_node": 100.0483,
        "meta_arg_of_pericenter": 49.502,
        "meta_mean_anomaly": 122.347,
        "meta_ephemeris_type": 0,
        "meta_classification_type": "U",
        "meta_norad_cat_id": 15935,
        "meta_element_set_no": 999,
        "meta_rev_at_epoch": 96617,
        "meta_bstar": 0.00021167705,
        "meta_mean_motion_dot": 1.27e-06,
        "meta_mean_motion_ddot": 0,
        "tle_line1": "1 15935U 85066A   25359.04650369  .00000127  00000+0  21168-3 0  9995",
        "tle_line2": "2 15935  90.1652 100.0483 0168860  49.5020 122.3470 13.36080406966172"
      },
      "geometry": {
        "type": "Point",
        "coordinates": [
          -79.87286823213368,
          21.976400601771402
        ]
      }
    },
    {
      "type": "Feature",
      "properties": {
        "norad_id": 15936,
        "name": "OSCAR 24",
        "group": "nnss",
        "lat": -45.13574899141219,
        "lon": -87.64382765227631,
        "alt_km": 1257.250182314132,
        "timestamp": "2025-12-25T19:00:39.619339+00:00",
        "meta_object_name": "OSCAR 24",
        "meta_object_id": "1985-066B",
        "meta_epoch": "2025-12-25T07:23:52.476000",
        "meta_mean_motion": 13.35937594,
        "meta_eccentricity": 0.01700281,
        "meta_inclination": 90.1791,
        "meta_ra_of_asc_node": 92.5277,
        "meta_arg_of_pericenter": 55.2267,
        "meta_mean_anomaly": 3.7314,
        "meta_ephemeris_type": 0,
        "meta_classification_type": "U",
        "meta_norad_cat_id": 15936,
        "meta_element_set_no": 999,
        "meta_rev_at_epoch": 96811,
        "meta_bstar": 0.00016593218,
        "meta_mean_motion_dot": 1.02e-06,
        "meta_mean_motion_ddot": 0,
        "tle_line1": "1 15936U 85066B   25359.30824625  .00000102  00000+0  16593-3 0  9992",
        "tle_line2": "2 15936  90.1791  92.5277 0170028  55.2267   3.7314 13.35937594968112"
      },
      "geometry": {
        "type": "Point",
        "coordinates": [
          -87.64382765227631,
          -45.13574899141219
        ]
      }
    },
    {
      "type": "Feature",
      "properties": {
        "norad_id": 17070,
        "name": "POLAR BEAR",
        "group": "nnss",
        "lat": 74.16330643801179,
        "lon": 1.8996638383030853,
        "alt_km": 946.0570524027307,
        "timestamp": "2025-12-25T19:00:39.619350+00:00",
        "meta_object_name": "POLAR BEAR",
        "meta_object_id": "1986-088A",
        "meta_epoch": "2025-12-25T00:02:02.554080",
        "meta_mean_motion": 13.75253296,
        "meta_eccentricity": 0.00412867,
        "meta_inclination": 89.617,
        "meta_ra_of_asc_node": 183.2827,
        "meta_arg_of_pericenter": 83.9988,
        "meta_mean_anomaly": 69.2776,
        "meta_ephemeris_type": 0,
        "meta_classification_type": "U",
        "meta_norad_cat_id": 17070,
        "meta_element_set_no": 999,
        "meta_rev_at_epoch": 96147,
        "meta_bstar": 0.00010005436,
        "meta_mean_motion_dot": 1.08e-06,
        "meta_mean_motion_ddot": 0,
        "tle_line1": "1 17070U 86088A   25359.00141845  .00000108  00000+0  10005-3 0  9999",
        "tle_line2": "2 17070  89.6170 183.2827 0041286  83.9988  69.2776 13.75253296961472"
      },
      "geometry": {
        "type": "Point",
        "coordinates": [
          1.8996638383030853,
          74.16330643801179
        ]
      }
    },
    {
      "type": "Feature",
      "properties": {
        "norad_id": 18361,
        "name": "OSCAR 27",
        "group": "nnss",
        "lat": 18.848316895570147,
        "lon": 79.63263514163343,
        "alt_km": 1166.9925961415147,
        "timestamp": "2025-12-25T19:00:39.619360+00:00",
        "meta_object_name": "OSCAR 27",
        "meta_object_id": "1987-080A",
        "meta_epoch": "2025-12-25T02:50:43.252224",
        "meta_mean_motion": 13.44909221,
        "meta_eccentricity": 0.01039567,
        "meta_inclination": 90.3736,
        "meta_ra_of_asc_node": 79.7351,
        "meta_arg_of_pericenter": 188.1847,
        "meta_mean_anomaly": 171.7609,
        "meta_ephemeris_type": 0,
        "meta_classification_type": "U",
        "meta_norad_cat_id": 18361,
        "meta_element_set_no": 999,
        "meta_rev_at_epoch": 87723,
        "meta_bstar": 0.00017449099,
        "meta_mean_motion_dot": 1.14e-06,
        "meta_mean_motion_ddot": 0,
        "tle_line1": "1 18361U 87080A   25359.11855616  .00000114  00000+0  17449-3 0  9992",
        "tle_line2": "2 18361  90.3736  79.7351 0103956 188.1847 171.7609 13.44909221877235"
      },
      "geometry": {
        "type": "Point",
        "coordinates": [
          79.63263514163343,
          18.848316895570147
        ]
      }
    },
    {
      "type": "Feature",
      "properties": {
        "norad_id": 18362,
        "name": "OSCAR 29",
        "group": "nnss",
        "lat": 10.186547334681215,
        "lon": 80.15286734371504,
        "alt_km": 1168.1451651455754,
        "timestamp": "2025-12-25T19:00:39.619370+00:00",
        "meta_object_name": "OSCAR 29",
        "meta_object_id": "1987-080B",
        "meta_epoch": "2025-12-25T00:10:49.420416",
        "meta_mean_motion": 13.44450714,
        "meta_eccentricity": 0.01047541,
        "meta_inclination": 90.3749,
        "meta_ra_of_asc_node": 80.1909,
        "meta_arg_of_pericenter": 211.66,
        "meta_mean_anomaly": 322.9629,
        "meta_ephemeris_type": 0,
        "meta_classification_type": "U",
        "meta_norad_cat_id": 18362,
        "meta_element_set_no": 999,
        "meta_rev_at_epoch": 87674,
        "meta_bstar": 0.0001662997,
        "meta_mean_motion_dot": 1.08e-06,
        "meta_mean_motion_ddot": 0,
        "tle_line1": "1 18362U 87080B   25359.00751644  .00000108  00000+0  16630-3 0  9991",
        "tle_line2": "2 18362  90.3749  80.1909 0104754 211.6600 322.9629 13.44450714876746"
      },
      "geometry": {
        "type": "Point",
        "coordinates": [
          80.15286734371504,
          10.186547334681215
        ]
      }
    },
    {
      "type": "Feature",
      "properties": {
        "norad_id": 19070,
        "name": "OSCAR 23",
        "group": "nnss",
        "lat": 81.48031148858384,
        "lon": 14.656790642936079,
        "alt_km": 1078.7485363718688,
        "timestamp": "2025-12-25T19:00:39.619380+00:00",
        "meta_object_name": "OSCAR 23",
        "meta_object_id": "1988-033A",
        "meta_epoch": "2025-12-25T02:38:09.075264",
        "meta_mean_motion": 13.27789056,
        "meta_eccentricity": 0.01904894,
        "meta_inclination": 90.3203,
        "meta_ra_of_asc_node": 16.7755,
        "meta_arg_of_pericenter": 145.6115,
        "meta_mean_anomaly": 278.2947,
        "meta_ephemeris_type": 0,
        "meta_classification_type": "U",
        "meta_norad_cat_id": 19070,
        "meta_element_set_no": 999,
        "meta_rev_at_epoch": 82417,
        "meta_bstar": 0.00010293328,
        "meta_mean_motion_dot": 6.1e-07,
        "meta_mean_motion_ddot": 0,
        "tle_line1": "1 19070U 88033A   25359.10982726  .00000061  00000+0  10293-3 0  9992",
        "tle_line2": "2 19070  90.3203  16.7755 0190489 145.6115 278.2947 13.27789056824170"
      },
      "geometry": {
        "type": "Point",
        "coordinates": [
          14.656790642936079,
          81.48031148858384
        ]
      }
    }
  ]
}